     3.00           N                   E                   RINEX VERSION / TYPE
BRD_USR             ESA                 20190106 131700  UTCPGM / RUN BY / DATE
 GAL   4.9750E+01  3.9062E-03 -3.2654E-03  0.0000E+00       IONOSPHERIC CORR
GAUT  0.0000000000E+00 0.000000000E+00      0 2035 GSTB   0 TIME SYSTEM CORR
GPGA -2.6484485716E-09 2.664535259E-15      0 2035 GSTB   0 TIME SYSTEM CORR
                                                            END OF HEADER
E13 2019 01 06 11 30 00 3.813962684944E-04 5.115907697473E-13 0.000000000000E+00
     6.900000000000E+01-1.617812500000E+02 2.866905132392E-09-2.974840265672E+00
    -7.636845111847E-06 3.338096430525E-04 1.164153218269E-06 5.440599117279E+03
     4.140000000000E+04 3.725290298462E-08-8.661253828330E-01-3.725290298462E-09
     9.852007131756E-01 3.247500000000E+02-1.606508862045E+00-5.678450815984E-09
    -2.264380034803E-10 5.210000000000E+02 2.035000000000E+03 0.000000000000E+00
     3.120000000000E+00 4.550000000000E+02-4.656612873077E-09-5.820766091347E-09
     4.232500000000E+04 0.000000000000E+00 0.000000000000E+00 0.000000000000E+00
E04 2019 01 06 11 30 00-1.943909446709E-04-7.858602657507E-12 0.000000000000E+00
     6.900000000000E+01 3.268750000000E+01 3.730869691412E-09 1.555550110563E+00
     1.473352313042E-06 8.296791929752E-05 4.816800355911E-06 5.440605083466E+03
     4.140000000000E+04-3.352761268616E-08 1.244401942862E+00-4.284083843231E-08
     9.522455371231E-01 2.297187500000E+02 1.975636130523E+00-5.771668984609E-09
     3.664438352852E-10 2.580000000000E+02 2.035000000000E+03 0.000000000000E+00
     3.120000000000E+00 0.000000000000E+00-7.916241884232E-09 0.000000000000E+00
     4.235000000000E+04 0.000000000000E+00 0.000000000000E+00 0.000000000000E+00
E13 2019 01 06 11 30 00 3.813966759481E-04 5.115907697473E-13 0.000000000000E+00
     6.900000000000E+01-1.617812500000E+02 2.866905132392E-09-2.974840265672E+00
    -7.636845111847E-06 3.338096430525E-04 1.164153218269E-06 5.440599117279E+03
     4.140000000000E+04 3.725290298462E-08-8.661253828330E-01-3.725290298462E-09
     9.852007131756E-01 3.247500000000E+02-1.606508862045E+00-5.678450815984E-09
    -2.264380034803E-10 2.580000000000E+02 2.035000000000E+03 0.000000000000E+00
     3.120000000000E+00 5.600000000000E+01-4.656612873077E-09 0.000000000000E+00
     4.235000000000E+04 0.000000000000E+00 0.000000000000E+00 0.000000000000E+00
E08 2019 01 06 11 30 00 6.428801105358E-03-7.446487870766E-12 0.000000000000E+00
     6.900000000000E+01 2.559375000000E+01 3.581577758518E-09-1.085402764753E-01
     1.238659024239E-06 2.272942801937E-04 5.507841706276E-06 5.440606035233E+03
     4.140000000000E+04-1.862645149231E-09 1.235710622205E+00-4.470348358154E-08
     9.581892957445E-01 2.176562500000E+02 4.952700438367E-01-5.625234313588E-09
     4.153744448700E-10 2.580000000000E+02 2.035000000000E+03 0.000000000000E+00
     3.120000000000E+00 0.000000000000E+00-8.381903171539E-09 0.000000000000E+00
     4.240000000000E+04 0.000000000000E+00 0.000000000000E+00 0.000000000000E+00
E09 2019 01 06 11 30 00 6.566393072717E-03-1.132605120802E-11 0.000000000000E+00
     6.900000000000E+01 3.137500000000E+01 3.598364172026E-09 2.607204847404E+00
     1.380220055580E-06 2.469861647114E-04 5.355104804039E-06 5.440603982925E+03
     4.140000000000E+04-1.676380634308E-08 1.235708618007E+00 3.166496753693E-08
     9.582194815962E-01 2.229062500000E+02 1.344620393751E-01-5.631663152804E-09
     4.118028675281E-10 2.580000000000E+02 2.035000000000E+03 0.000000000000E+00
     3.120000000000E+00 0.000000000000E+00-3.492459654808E-09 0.000000000000E+00
     4.240000000000E+04 0.000000000000E+00 0.000000000000E+00 0.000000000000E+00
E33 2019 01 06 11 30 00 8.478712406941E-04 1.136868377216E-13 0.000000000000E+00
     6.900000000000E+01-1.683125000000E+02 2.864405028253E-09 1.642547423219E+00
    -7.830560207367E-06 3.548782551661E-04 2.071261405945E-06 5.440601419449E+03
     4.140000000000E+04-2.607703208923E-08-8.661613384336E-01-2.048909664154E-08
     9.851968510719E-01 3.098125000000E+02-1.514328111719E+00-5.663807348881E-09
    -2.732256666600E-10 2.580000000000E+02 2.035000000000E+03 0.000000000000E+00
     3.120000000000E+00 5.600000000000E+01-8.149072527885E-09 0.000000000000E+00
     4.240000000000E+04 0.000000000000E+00 0.000000000000E+00 0.000000000000E+00
E08 2019 01 06 11 30 00 6.428800348658E-03-7.460698725481E-12 0.000000000000E+00
     6.900000000000E+01 2.559375000000E+01 3.581577758518E-09-1.085402764753E-01
     1.238659024239E-06 2.272942801937E-04 5.507841706276E-06 5.440606035233E+03
     4.140000000000E+04-1.862645149231E-09 1.235710622205E+00-4.470348358154E-08
     9.581892957445E-01 2.176562500000E+02 4.952700438367E-01-5.625234313588E-09
     4.153744448700E-10 5.210000000000E+02 2.035000000000E+03 0.000000000000E+00
     3.120000000000E+00 0.000000000000E+00-8.381903171539E-09-9.778887033463E-09
     4.241500000000E+04 0.000000000000E+00 0.000000000000E+00 0.000000000000E+00
E09 2019 01 06 11 30 00 6.566392898094E-03-1.131184035330E-11 0.000000000000E+00
     6.900000000000E+01 3.137500000000E+01 3.598364172026E-09 2.607204847404E+00
     1.380220055580E-06 2.469861647114E-04 5.355104804039E-06 5.440603982925E+03
     4.140000000000E+04-1.676380634308E-08 1.235708618007E+00 3.166496753693E-08
     9.582194815962E-01 2.229062500000E+02 1.344620393751E-01-5.631663152804E-09
     4.118028675281E-10 5.210000000000E+02 2.035000000000E+03 0.000000000000E+00
     3.120000000000E+00 0.000000000000E+00-3.492459654808E-09-3.958120942116E-09
     4.241500000000E+04 0.000000000000E+00 0.000000000000E+00 0.000000000000E+00
E33 2019 01 06 11 30 00 8.478706004098E-04 1.136868377216E-13 0.000000000000E+00
     6.900000000000E+01-1.683125000000E+02 2.864405028253E-09 1.642547423219E+00
    -7.830560207367E-06 3.548782551661E-04 2.071261405945E-06 5.440601419449E+03
     4.140000000000E+04-2.607703208923E-08-8.661613384336E-01-2.048909664154E-08
     9.851968510719E-01 3.098125000000E+02-1.514328111719E+00-5.663807348881E-09
    -2.732256666600E-10 5.210000000000E+02 2.035000000000E+03 0.000000000000E+00
     3.120000000000E+00 4.550000000000E+02-8.149072527885E-09-9.313225746155E-09
     4.241500000000E+04 0.000000000000E+00 0.000000000000E+00 0.000000000000E+00
E25 2019 01 06 11 30 00 1.932000159286E-03-1.136868377216E-11 0.000000000000E+00
     6.900000000000E+01 1.679687500000E+02 2.231521523257E-09 1.258992537727E+00
     7.761642336845E-06 2.179573057219E-04 1.191534101963E-05 5.440637504578E+03
     4.140000000000E+04 3.166496753693E-08-2.949078127616E+00 0.000000000000E+00
     9.899198850167E-01 9.756250000000E+01-1.373811753688E+00-5.041638575912E-09
    -1.539349834385E-10 2.580000000000E+02 2.035000000000E+03 0.000000000000E+00
     3.120000000000E+00 0.000000000000E+00-1.396983861923E-09 0.000000000000E+00
     4.245000000000E+04 0.000000000000E+00 0.000000000000E+00 0.000000000000E+00
E25 2019 01 06 11 30 00 1.932000450324E-03-1.136868377216E-11 0.000000000000E+00
     6.900000000000E+01 1.679687500000E+02 2.231521523257E-09 1.258992537727E+00
     7.761642336845E-06 2.179573057219E-04 1.191534101963E-05 5.440637504578E+03
     4.140000000000E+04 3.166496753693E-08-2.949078127616E+00 0.000000000000E+00
     9.899198850167E-01 9.756250000000E+01-1.373811753688E+00-5.041638575912E-09
    -1.539349834385E-10 5.210000000000E+02 2.035000000000E+03 0.000000000000E+00
     3.120000000000E+00 0.000000000000E+00-1.396983861923E-09-1.629814505577E-09
     4.247500000000E+04 0.000000000000E+00 0.000000000000E+00 0.000000000000E+00
E08 2019 01 06 11 30 00 6.428800348658E-03-7.460698725481E-12 0.000000000000E+00
     6.900000000000E+01 2.559375000000E+01 3.581577758518E-09-1.085402764753E-01
     1.238659024239E-06 2.272942801937E-04 5.507841706276E-06 5.440606035233E+03
     4.140000000000E+04-1.862645149231E-09 1.235710622205E+00-4.470348358154E-08
     9.581892957445E-01 2.176562500000E+02 4.952700438367E-01-5.625234313588E-09
     4.153744448700E-10 5.210000000000E+02 2.035000000000E+03 0.000000000000E+00
     3.120000000000E+00 0.000000000000E+00-8.381903171539E-09-9.778887033463E-09
     4.256500000000E+04 0.000000000000E+00 0.000000000000E+00 0.000000000000E+00
E12 2019 01 06 11 30 00 5.881906428840E-03 8.435563358944E-11 0.000000000000E+00
     6.900000000000E+01-1.757500000000E+02 2.931193524547E-09 2.617833912776E-01
    -8.149072527885E-06 3.693620674312E-04 2.676621079445E-06 5.440603864670E+03
     4.140000000000E+04-3.352761268616E-08-8.608410901267E-01-1.303851604462E-08
     9.819741507992E-01 2.925312500000E+02-9.042590197092E-01-5.696665860428E-09
    -2.721541934574E-10 5.210000000000E+02 2.035000000000E+03 0.000000000000E+00
     3.120000000000E+00 0.000000000000E+00-1.559965312481E-08-1.583248376846E-08
     4.259500000000E+04 0.000000000000E+00 0.000000000000E+00 0.000000000000E+00
E08 2019 01 06 11 30 00 6.428801105358E-03-7.446487870766E-12 0.000000000000E+00
     6.900000000000E+01 2.559375000000E+01 3.581577758518E-09-1.085402764753E-01
     1.238659024239E-06 2.272942801937E-04 5.507841706276E-06 5.440606035233E+03
     4.140000000000E+04-1.862645149231E-09 1.235710622205E+00-4.470348358154E-08
     9.581892957445E-01 2.176562500000E+02 4.952700438367E-01-5.625234313588E-09
     4.153744448700E-10 2.580000000000E+02 2.035000000000E+03 0.000000000000E+00
     3.120000000000E+00 0.000000000000E+00-8.381903171539E-09 0.000000000000E+00
     4.260000000000E+04 0.000000000000E+00 0.000000000000E+00 0.000000000000E+00
